stk.v.11.0
WrittenBy    formation-sat-exporter

BEGIN Ephemeris
    NumberOfEphemerisPoints 181
    ScenarioEpoch 21 Mar 2026 07:38:40.000000000 UTCG
    InterpolationMethod     Lagrange
    InterpolationOrder      7
    CentralBody             Earth
    CoordinateSystem        TEME
    DistanceUnit            Kilometers

    BEGIN EphemerisTimePosVel
        124.000000000  4.84036244586868e+03 -1.41859330601367e+03  4.76506365786042e+03 -5.30527046420483e+00  1.00610918378610e-01  5.41415548272018e+00
        125.000000000  4.83505428353893e+03 -1.41849184726965e+03  4.77047497214928e+03 -5.31105314626466e+00  1.02306551937341e-01  5.40847201155772e+00
        126.000000000  4.82974034167537e+03 -1.41838869294559e+03  4.77588059971772e+03 -5.31682953067120e+00  1.04002078126382e-01  5.40278204299659e+00
        127.000000000  4.82442062657915e+03 -1.41828384314987e+03  4.78128053407168e+03 -5.32259961041468e+00  1.05697494918818e-01  5.39708558369932e+00
        128.000000000  4.81909514455843e+03 -1.41817729799290e+03  4.78667476872376e+03 -5.32836337849248e+00  1.07392800287758e-01  5.39138264033645e+00
        129.000000000  4.81376390192839e+03 -1.41806905758711e+03  4.79206329719322e+03 -5.33412082790912e+00  1.09087992206336e-01  5.38567321958663e+00
        130.000000000  4.80842690501116e+03 -1.41795912204698e+03  4.79744611300603e+03 -5.33987195167631e+00  1.10783068647722e-01  5.37995732813657e+00
        131.000000000  4.80308416013591e+03 -1.41784749148899e+03  4.80282320969483e+03 -5.34561674281292e+00  1.12478027585107e-01  5.37423497268101e+00
        132.000000000  4.79773567363873e+03 -1.41773416603165e+03  4.80819458079897e+03 -5.35135519434503e+00  1.14172866991725e-01  5.36850615992276e+00
        133.000000000  4.79238145186274e+03 -1.41761914579553e+03  4.81356021986448e+03 -5.35708729930588e+00  1.15867584840830e-01  5.36277089657265e+00
        134.000000000  4.78702150115797e+03 -1.41750243090317e+03  4.81892012044415e+03 -5.36281305073596e+00  1.17562179105730e-01  5.35702918934957e+00
        135.000000000  4.78165582788144e+03 -1.41738402147919e+03  4.82427427609746e+03 -5.36853244168294e+00  1.19256647759758e-01  5.35128104498041e+00
        136.000000000  4.77628443839709e+03 -1.41726391765020e+03  4.82962268039063e+03 -5.37424546520174e+00  1.20950988776305e-01  5.34552647020009e+00
        137.000000000  4.77090733907583e+03 -1.41714211954486e+03  4.83496532689662e+03 -5.37995211435451e+00  1.22645200128810e-01  5.33976547175155e+00
        138.000000000  4.76552453629548e+03 -1.41701862729384e+03  4.84030220919515e+03 -5.38565238221063e+00  1.24339279790743e-01  5.33399805638572e+00
        139.000000000  4.76013603644082e+03 -1.41689344102986e+03  4.84563332087267e+03 -5.39134626184675e+00  1.26033225735629e-01  5.32822423086154e+00
        140.000000000  4.75474184590351e+03 -1.41676656088762e+03  4.85095865552240e+03 -5.39703374634676e+00  1.27727035937046e-01  5.32244400194594e+00
        141.000000000  4.74934197108214e+03 -1.41663798700390e+03  4.85627820674435e+03 -5.40271482880185e+00  1.29420708368639e-01  5.31665737641383e+00
        142.000000000  4.74393641838223e+03 -1.41650771951749e+03  4.86159196814528e+03 -5.40838950231046e+00  1.31114241004099e-01  5.31086436104812e+00
        143.000000000  4.73852519421615e+03 -1.41637575856918e+03  4.86689993333876e+03 -5.41405775997835e+00  1.32807631817173e-01  5.30506496263966e+00
        144.000000000  4.73310830500319e+03 -1.41624210430181e+03  4.87220209594514e+03 -5.41971959491856e+00  1.34500878781685e-01  5.29925918798727e+00
        145.000000000  4.72768575716952e+03 -1.41610675686024e+03  4.87749844959158e+03 -5.42537500025144e+00  1.36193979871503e-01  5.29344704389776e+00
        146.000000000  4.72225755714818e+03 -1.41596971639136e+03  4.88278898791205e+03 -5.43102396910467e+00  1.37886933060584e-01  5.28762853718584e+00
        147.000000000  4.71682371137909e+03 -1.41583098304410e+03  4.88807370454735e+03 -5.43666649461325e+00  1.39579736322944e-01  5.28180367467420e+00
        148.000000000  4.71138422630904e+03 -1.41569055696937e+03  4.89335259314507e+03 -5.44230256991950e+00  1.41272387632664e-01  5.27597246319346e+00
        149.000000000  4.70593910839162e+03 -1.41554843832016e+03  4.89862564735967e+03 -5.44793218817312e+00  1.42964884963917e-01  5.27013490958215e+00
        150.000000000  4.70048836408733e+03 -1.41540462725144e+03  4.90389286085246e+03 -5.45355534253114e+00  1.44657226290939e-01  5.26429102068674e+00
        151.000000000  4.69503199986347e+03 -1.41525912392026e+03  4.90915422729156e+03 -5.45917202615796e+00  1.46349409588056e-01  5.25844080336162e+00
        152.000000000  4.68957002219420e+03 -1.41511192848562e+03  4.91440974035199e+03 -5.46478223222536e+00  1.48041432829661e-01  5.25258426446906e+00
        153.000000000  4.68410243756049e+03 -1.41496304110862e+03  4.91965939371560e+03 -5.47038595391250e+00  1.49733293990244e-01  5.24672141087926e+00
        154.000000000  4.67862925245011e+03 -1.41481246195235e+03  4.92490318107114e+03 -5.47598318440592e+00  1.51424991044376e-01  5.24085224947029e+00
        155.000000000  4.67315047335768e+03 -1.41466019118191e+03  4.93014109611423e+03 -5.48157391689958e+00  1.53116521966721e-01  5.23497678712813e+00
        156.000000000  4.66766610678459e+03 -1.41450622896447e+03  4.93537313254738e+03 -5.48715814459483e+00  1.54807884732029e-01  5.22909503074663e+00
        157.000000000  4.66217615923903e+03 -1.41435057546918e+03  4.94059928408000e+03 -5.49273586070046e+00  1.56499077315153e-01  5.22320698722749e+00
        158.000000000  4.65668063723598e+03 -1.41419323086724e+03  4.94581954442842e+03 -5.49830705843267e+00  1.58190097691035e-01  5.21731266348032e+00
        159.000000000  4.65117954729721e+03 -1.41403419533187e+03  4.95103390731586e+03 -5.50387173101513e+00  1.59880943834713e-01  5.21141206642254e+00
        160.000000000  4.64567289595126e+03 -1.41387346903832e+03  4.95624236647246e+03 -5.50942987167891e+00  1.61571613721339e-01  5.20550520297946e+00
        161.000000000  4.64016068973342e+03 -1.41371105216386e+03  4.96144491563532e+03 -5.51498147366258e+00  1.63262105326165e-01  5.19959208008420e+00
        162.000000000  4.63464293518575e+03 -1.41354694488778e+03  4.96664154854846e+03 -5.52052653021215e+00  1.64952416624536e-01  5.19367270467774e+00
        163.000000000  4.62911963885706e+03 -1.41338114739139e+03  4.97183225896283e+03 -5.52606503458112e+00  1.66642545591917e-01  5.18774708370888e+00
        164.000000000  4.62359080730289e+03 -1.41321365985804e+03  4.97701704063635e+03 -5.53159698003047e+00  1.68332490203886e-01  5.18181522413423e+00
        165.000000000  4.61805644708553e+03 -1.41304448247311e+03  4.98219588733389e+03 -5.53712235982865e+00  1.70022248436136e-01  5.17587713291824e+00
        166.000000000  4.61251656477402e+03 -1.41287361542398e+03  4.98736879282729e+03 -5.54264116725165e+00  1.71711818264462e-01  5.16993281703316e+00
        167.000000000  4.60697116694407e+03 -1.41270105890006e+03  4.99253575089539e+03 -5.54815339558294e+00  1.73401197664791e-01  5.16398228345902e+00
        168.000000000  4.60142026017813e+03 -1.41252681309280e+03  4.99769675532398e+03 -5.55365903811355e+00  1.75090384613166e-01  5.15802553918367e+00
        169.000000000  4.59586385106534e+03 -1.41235087819566e+03  5.00285179990585e+03 -5.55915808814199e+00  1.76779377085765e-01  5.15206259120272e+00
        170.000000000  4.59030194620158e+03 -1.41217325440413e+03  5.00800087844080e+03 -5.56465053897434e+00  1.78468173058868e-01  5.14609344651957e+00
        171.000000000  4.58473455218936e+03 -1.41199394191572e+03  5.01314398473565e+03 -5.57013638392423e+00  1.80156770508909e-01  5.14011811214539e+00
        172.000000000  4.57916167563793e+03 -1.41181294092996e+03  5.01828111260420e+03 -5.57561561631283e+00  1.81845167412429e-01  5.13413659509912e+00
        173.000000000  4.57358332316316e+03 -1.41163025164842e+03  5.02341225586730e+03 -5.58108822946890e+00  1.83533361746129e-01  5.12814890240744e+00
        174.000000000  4.56799950138762e+03 -1.41144587427467e+03  5.02853740835281e+03 -5.58655421672876e+00  1.85221351486829e-01  5.12215504110478e+00
        175.000000000  4.56241021694056e+03 -1.41125980901432e+03  5.03365656389564e+03 -5.59201357143630e+00  1.86909134611481e-01  5.11615501823334e+00
        176.000000000  4.55681547645782e+03 -1.41107205607499e+03  5.03876971633776e+03 -5.59746628694304e+00  1.88596709097192e-01  5.11014884084301e+00
        177.000000000  4.55121528658195e+03 -1.41088261566634e+03  5.04387685952817e+03 -5.60291235660807e+00  1.90284072921206e-01  5.10413651599144e+00
        178.000000000  4.54560965396210e+03 -1.41069148800005e+03  5.04897798732294e+03 -5.60835177379812e+00  1.91971224060917e-01  5.09811805074399e+00
        179.000000000  4.53999858525406e+03 -1.41049867328979e+03  5.05407309358522e+03 -5.61378453188751e+00  1.93658160493865e-01  5.09209345217372e+00
        180.000000000  4.53438208712023e+03 -1.41030417175131e+03  5.05916217218521e+03 -5.61921062425821e+00  1.95344880197736e-01  5.08606272736140e+00
    END EphemerisTimePosVel
END Ephemeris
